[{"OBJECT_NAME":"TANSTAAFL-2","OBJECT_ID":"2024-247B","EPOCH":"2026-03-08T04:58:51.015360","MEAN_MOTION":15.28016845,"ECCENTRICITY":0.00030723,"INCLINATION":44.988,"RA_OF_ASC_NODE":125.0934,"ARG_OF_PERICENTER":298.8909,"MEAN_ANOMALY":61.1666,"EPHEMERIS_TYPE":0,"CLASSIFICATION_TYPE":"U","NORAD_CAT_ID":62378,"ELEMENT_SET_NO":999,"REV_AT_EPOCH":6750,"BSTAR":0.00050871624,"MEAN_MOTION_DOT":0.00013897,"MEAN_MOTION_DDOT":0},{"OBJECT_NAME":"STARLINK-34992","OBJECT_ID":"2025-192J","EPOCH":"2026-03-09T22:00:01.999584","MEAN_MOTION":15.30163898,"ECCENTRICITY":0.00010017,"INCLINATION":53.16,"RA_OF_ASC_NODE":231.0619,"ARG_OF_PERICENTER":78.2264,"MEAN_ANOMALY":232.9057,"EPHEMERIS_TYPE":0,"CLASSIFICATION_TYPE":"U","NORAD_CAT_ID":65412,"ELEMENT_SET_NO":999,"REV_AT_EPOCH":589,"BSTAR":0.0021838208,"MEAN_MOTION_DOT":0.00064812,"MEAN_MOTION_DDOT":0}]
